NAVSTAR 77 (USA 289)    
1 43873U 18109A   24295.48626212  .00000026  00000+0  00000+0 0  9993
2 43873  55.3489 116.0345 0031328 191.7677 349.8595  2.00560835 42969
